OBJECT_NAME,OBJECT_ID,EPOCH,MEAN_MOTION,ECCENTRICITY,INCLINATION,RA_OF_ASC_NODE,ARG_OF_PERICENTER,MEAN_ANOMALY,EPHEMERIS_TYPE,CLASSIFICATION_TYPE,NORAD_CAT_ID,ELEMENT_SET_NO,REV_AT_EPOCH,BSTAR,MEAN_MOTION_DOT,MEAN_MOTION_DDOT
SWARM A,2013-067B,2026-07-15T03:40:21.467136,15.51458053,.0003321,87.3296,45.8424,93.5297,266.6344,0,U,39452,999,71058,.10485E-3,.6227E-4,0
SWARM C,2013-067C,2026-07-15T03:40:13.403424,15.51457345,.0003313,87.3296,44.4233,93.7867,266.3773,0,U,39453,999,71054,.10486E-3,.6227E-4,0
BRITE-CA1 (TORONTO),2014-033L,2026-07-14T21:28:29.466336,14.72722213,.0078412,97.9771,324.3173,187.2199,172.7886,0,U,40020,999,64629,.85757E-4,.52E-5,0
OCO 2,2014-035A,2026-07-15T04:08:19.819104,14.57132175,.0001442,98.2020,137.0405,81.4259,278.7103,0,U,40059,999,64012,.45007E-4,.158E-5,0
BRITE-PL2 (HEWELIUSZ),2014-049B,2026-07-14T21:19:12.933696,14.94686767,.0014364,97.9120,308.1065,23.2614,336.9253,0,U,40119,999,64558,.54623E-4,.534E-5,0
MMS 1,2015-011A,2026-07-15T06:00:02.000160,0.28279940,.83032,72.4722,348.4273,168.0026,281.2092,0,U,40482,999,136,0,-.1493E-4,0
MMS 2,2015-011B,2026-07-15T06:00:02.000160,0.28279913,.8306011,72.4761,348.4263,168.0055,281.1965,0,U,40483,999,136,0,-.1494E-4,0
MMS 3,2015-011C,2026-07-15T06:00:02.000160,0.28287960,.8304196,72.4748,348.4378,168.0182,281.1473,0,U,40484,999,133,0,-.1492E-4,0
MMS 4,2015-011D,2026-07-15T06:00:02.000160,0.28279987,.8304327,72.4715,348.4216,168.0231,281.1658,0,U,40485,999,139,0,-.1493E-4,0
ASTROSAT,2015-052A,2026-07-14T14:32:31.036128,14.82551732,.0007438,5.9977,317.9923,64.8495,295.2404,0,U,40930,999,58390,.55705E-4,.1128E-4,0
DAMPE,2015-078A,2026-07-15T05:03:16.786080,15.30852767,.001159,97.4557,201.8166,345.4384,14.6521,0,U,41173,999,58883,.2037E-4,.53E-5,0
PISAT,2016-059B,2026-07-15T00:04:07.080672,14.69029521,.0030441,97.8191,195.2619,115.4250,245.0112,0,U,41784,999,52382,.84679E-4,.453E-5,0
HXMT (HUIYAN),2017-034A,2026-07-15T00:32:34.341216,15.18687725,.0032312,43.0154,28.0210,319.7214,40.1242,0,U,42758,999,50189,.11692E-3,.2254E-4,0
FLYING LAPTOP,2017-042G,2026-07-15T04:19:17.959872,15.01312154,.0019704,97.4801,350.6592,32.5803,327.6633,0,U,42831,999,49065,.14435E-3,.1807E-4,0
ZHANGHENG 1-01 (CSES-1),2018-015C,2026-07-15T04:00:28.111392,15.20607555,.0016385,97.6888,2.3852,165.0183,195.1540,0,U,43194,999,46889,.16906E-3,.3645E-4,0
SALSAT,2020-068K,2026-07-15T00:09:24.300864,15.30170520,.0009152,97.8854,200.7735,193.6321,166.4672,0,U,46495,999,31961,.14518E-3,.4157E-4,0
IXPE,2021-121A,2026-07-15T04:00:03.000096,15.10489338,.000734,0.2302,105.1904,145.0444,87.4520,0,U,49954,999,541,.41517E-3,.7971E-4,0
SMILE,2026-109A,2026-07-13T23:01:31.580256,0.47500629,.8313708,70.0512,206.6047,286.9544,0.1879,0,U,69123,999,6,0,.936E-5,0
