SWARM A                 
1 39452U 13067B   26196.15302624  .00006227  00000+0  10485-3 0  9994
2 39452  87.3296  45.8424 0003321  93.5297 266.6344 15.51458053710580
SWARM C                 
1 39453U 13067C   26196.15293291  .00006227  00000+0  10486-3 0  9995
2 39453  87.3296  44.4233 0003313  93.7867 266.3773 15.51457345710542
BRITE-CA1 (TORONTO)     
1 40020U 14033L   26195.89478549  .00000520  00000+0  85757-4 0  9996
2 40020  97.9771 324.3173 0078412 187.2199 172.7886 14.72722213646297
OCO 2                   
1 40059U 14035A   26196.17245161  .00000158  00000+0  45007-4 0  9995
2 40059  98.2020 137.0405 0001442  81.4259 278.7103 14.57132175640128
BRITE-PL2 (HEWELIUSZ)   
1 40119U 14049B   26195.88834414  .00000534  00000+0  54623-4 0  9991
2 40119  97.9120 308.1065 0014364  23.2614 336.9253 14.94686767645581
MMS 1                   
1 40482U 15011A   26196.25002315 -.00001493  00000+0  00000+0 0  9994
2 40482  72.4722 348.4273 8303200 168.0026 281.2092  0.28279940  1369
MMS 2                   
1 40483U 15011B   26196.25002315 -.00001494  00000+0  00000+0 0  9996
2 40483  72.4761 348.4263 8306011 168.0055 281.1965  0.28279913  1365
MMS 3                   
1 40484U 15011C   26196.25002315 -.00001492  00000+0  00000+0 0  9995
2 40484  72.4748 348.4378 8304196 168.0182 281.1473  0.28287960  1333
MMS 4                   
1 40485U 15011D   26196.25002315 -.00001493  00000+0  00000+0 0  9997
2 40485  72.4715 348.4216 8304327 168.0231 281.1658  0.28279987  1391
ASTROSAT                
1 40930U 15052A   26195.60591477  .00001128  00000+0  55705-4 0  9998
2 40930   5.9977 317.9923 0007438  64.8495 295.2404 14.82551732583906
DAMPE                   
1 41173U 15078A   26196.21061095  .00000530  00000+0  20370-4 0  9998
2 41173  97.4557 201.8166 0011590 345.4384  14.6521 15.30852767588831
PISAT                   
1 41784U 16059B   26196.00285973  .00000453  00000+0  84679-4 0  9992
2 41784  97.8191 195.2619 0030441 115.4250 245.0112 14.69029521523828
HXMT (HUIYAN)           
1 42758U 17034A   26196.02261969  .00002254  00000+0  11692-3 0  9994
2 42758  43.0154  28.0210 0032312 319.7214  40.1242 15.18687725501892
FLYING LAPTOP           
1 42831U 17042G   26196.18006898  .00001807  00000+0  14435-3 0  9991
2 42831  97.4801 350.6592 0019704  32.5803 327.6633 15.01312154490658
ZHANGHENG 1-01 (CSES-1) 
1 43194U 18015C   26196.16699203  .00003645  00000+0  16906-3 0  9998
2 43194  97.6888   2.3852 0016385 165.0183 195.1540 15.20607555468892
SALSAT                  
1 46495U 20068K   26196.00653126  .00004157  00000+0  14518-3 0  9999
2 46495  97.8854 200.7735 0009152 193.6321 166.4672 15.30170520319613
IXPE                    
1 49954U 21121A   26196.16670139  .00007971  00000+0  41517-3 0  9999
2 49954   0.2302 105.1904 0007340 145.0444  87.4520 15.10489338  5414
SMILE                   
1 69123U 26109A   26194.95939329  .00000936  00000+0  00000+0 0  9996
2 69123  70.0512 206.6047 8313708 286.9544   0.1879  0.47500629    65
